[Satellite]
VERSION=1.1
NAME=FLOCK 3P-65
NICKNAME=FLOCK 3P-65
TLE1=1 42028U 17008CJ  17186.21949978  .00001554  00000-0  69850-4 0  9991
TLE2=2 42028  97.4952 247.5532 0009576 138.9745 221.2213 15.22621681 21130
